{
    "links": {
        "self": "http://www.neowsapp.com/rest/v1/neo/3674749?api_key=iIulBulltgU6a56xZRHN4H3l9WmuAYTsLGpBGhQ2"
    },
    "id": "3674749",
    "neo_reference_id": "3674749",
    "name": "(2014 ML67)",
    "designation": "2014 ML67",
    "nasa_jpl_url": "http://ssd.jpl.nasa.gov/sbdb.cgi?sstr=3674749",
    "absolute_magnitude_h": 24.1,
    "estimated_diameter": {
        "kilometers": {
            "estimated_diameter_min": 0.040230458,
            "estimated_diameter_max": 0.0899580388
        },
        "meters": {
            "estimated_diameter_min": 40.2304579834,
            "estimated_diameter_max": 89.9580388169
        },
        "miles": {
            "estimated_diameter_min": 0.0249980399,
            "estimated_diameter_max": 0.0558973165
        },
        "feet": {
            "estimated_diameter_min": 131.9896957704,
            "estimated_diameter_max": 295.1379320721
        }
    },
    "is_potentially_hazardous_asteroid": false,
    "close_approach_data": [
        {
            "close_approach_date": "2014-07-05",
            "close_approach_date_full": "2014-Jul-05 00:32",
            "epoch_date_close_approach": 1404520320000,
            "relative_velocity": {
                "kilometers_per_second": "19.0387480492",
                "kilometers_per_hour": "68539.4929772053",
                "miles_per_hour": "42587.7755113085"
            },
            "miss_distance": {
                "astronomical": "0.0414347525",
                "lunar": "16.1181187225",
                "kilometers": "6198550.717977175",
                "miles": "3851600.815048015"
            },
            "orbiting_body": "Earth"
        }
    ],
    "orbital_data": {
        "orbit_id": "5",
        "orbit_determination_date": "2019-12-18 11:17:29",
        "first_observation_date": "2014-06-29",
        "last_observation_date": "2014-06-30",
        "data_arc_in_days": 1,
        "observations_used": 6,
        "orbit_uncertainty": "9",
        "minimum_orbit_intersection": ".0129101",
        "jupiter_tisserand_invariant": "3.184",
        "epoch_osculation": "2456838.5",
        "eccentricity": ".7185029975308135",
        "semi_major_axis": "2.303761476327872",
        "inclination": "1.839337205067642",
        "ascending_node_longitude": "303.3430890176345",
        "orbital_period": "1277.187602998397",
        "perihelion_distance": ".6485019499902837",
        "perihelion_argument": "59.03641553959125",
        "aphelion_distance": "3.959021002665459",
        "perihelion_time": "2456889.462555747178",
        "mean_anomaly": "345.63521911275",
        "mean_motion": ".2818693190842473",
        "equinox": "J2000",
        "orbit_class": {
            "orbit_class_type": "APO",
            "orbit_class_description": "Near-Earth asteroid orbits which cross the Earth’s orbit similar to that of 1862 Apollo",
            "orbit_class_range": "a (semi-major axis) > 1.0 AU; q (perihelion) < 1.017 AU"
        }
    },
    "is_sentry_object": false
}